OBJECT_NAME,OBJECT_ID,EPOCH,MEAN_MOTION,ECCENTRICITY,INCLINATION,RA_OF_ASC_NODE,ARG_OF_PERICENTER,MEAN_ANOMALY,EPHEMERIS_TYPE,CLASSIFICATION_TYPE,NORAD_CAT_ID,ELEMENT_SET_NO,REV_AT_EPOCH,BSTAR,MEAN_MOTION_DOT,MEAN_MOTION_DDOT
JUPITER 3 (ECHOSTAR 24),2023-108A,2026-07-12T10:59:31.898112,1.00274096,.0001264,0.0223,42.4676,73.5537,243.9918,0,U,57479,999,1089,0,0,0
GALAXY 37 (G-37),2023-112A,2026-07-13T00:53:02.683968,1.00271041,.0001737,0.0192,70.6042,46.4804,60.0892,0,U,57493,999,1080,0,.47E-6,0
LUDI TANCE-4 01A,2023-120A,2026-07-13T00:11:59.121024,1.00276195,.0001275,15.0878,193.3305,21.4011,168.6232,0,U,57624,999,1080,0,-.172E-5,0
TJS-10,2023-169A,2026-07-12T19:02:21.698016,1.00274459,.000407,2.6078,80.1837,116.0570,112.3864,0,U,58204,999,979,0,-.252E-5,0
ZHONGXING-6E,2023-172A,2026-07-10T17:43:38.672256,1.00266240,.00021744,0.0182,60.2036,50.2192,199.5949,0,U,58253,999,989,0,-.352E-5,0
YAOGAN-41,2023-197A,2026-07-12T22:39:00.450144,1.00266717,.0014262,3.0830,313.5406,198.6982,241.4885,0,U,58582,999,958,0,-.359E-5,0
OVZON-3,2024-003A,2026-07-13T01:46:18.976800,1.00268800,.0000367,0.0185,82.3754,215.8420,78.9976,0,U,58698,999,770,0,.5E-6,0
INSAT-3DS,2024-033A,2026-07-13T01:52:40.868256,1.00271086,.0001027,0.0973,265.1388,226.0543,270.0098,0,U,58990,999,4732,0,-.157E-5,0
MERAH PUTIH 2,2024-035A,2026-07-13T02:01:25.030272,1.00271167,.0001043,0.0178,79.5594,36.1915,318.5270,0,U,58995,999,884,0,-.36E-5,0
TJS-11,2024-037A,2026-07-12T22:36:00.737280,1.00274791,.0001792,4.1663,327.3969,147.8424,267.1287,0,U,59020,999,884,0,-.359E-5,0
HULIANWAN GAOGUI-01 (HG-01),2024-040A,2026-07-12T11:57:38.890656,1.00270541,.00018287,0.0755,330.6497,67.4323,105.3455,0,U,59069,999,758,0,.157E-5,0
EUTELSAT 36D,2024-059A,2026-07-12T18:47:38.726304,1.00271552,.0000532,0.0280,56.9239,142.5486,48.9938,0,U,59346,999,840,0,0,0
PAKSAT-MM1,2024-104A,2026-07-13T01:40:04.576224,1.00269495,.0001965,0.0321,149.0265,307.3606,257.7254,0,U,59915,999,778,0,.152E-5,0
ASTRA 1P (SES-24),2024-115A,2026-07-12T15:18:49.044096,1.00266438,.0000696,0.0663,332.0636,234.0023,333.3659,0,U,60086,999,745,0,.12E-5,0
GOES 19,2024-119A,2026-07-13T02:50:25.724256,1.00271858,.0000451,0.0168,202.8362,12.0413,43.5299,0,U,60133,999,722,0,-.25E-5,0
ZHONGXING-3A,2024-122A,2026-07-12T19:07:35.684256,1.00272166,.0001518,0.0296,128.8655,36.2450,154.0627,0,U,60179,999,756,0,-.314E-5,0
TURKSAT 6A,2024-127A,2026-07-13T01:41:11.968224,1.00269025,.0002915,0.0182,232.5780,298.4200,187.2404,0,U,60233,999,727,0,0,0
HULIANWAN GAOGUI-02 (HG-02),2024-135A,2026-07-12T21:04:58.285632,1.00270340,.0006339,0.0470,352.1009,15.8258,32.1136,0,U,60327,999,775,0,-.175E-5,0
ZHONGXING-4A,2024-151A,2026-07-13T02:02:47.397984,1.00268308,.0000394,1.2494,270.5149,304.5075,224.8445,0,U,60606,999,701,0,-.363E-5,0
HULIANWAN GAOGUI-03 (HG-03),2024-181A,2026-07-13T03:37:22.882656,1.00269678,.0001011,0.0509,355.1582,88.8417,184.2646,0,U,61503,999,708,0,-.243E-5,0
DSN-3 (KIRAMEKI-3),2024-198A,2026-07-13T00:27:20.150208,1.00270689,.0000794,0.0229,41.9194,101.8867,298.0005,0,U,61733,999,617,0,0,0
KOREASAT 6A,2024-206A,2026-07-13T02:02:24.933984,1.00271164,.0000691,0.0217,83.2983,3.9871,350.2985,0,U,61910,999,609,0,-.364E-5,0
OPTUS-X (ADS-01),2024-212A,2026-07-12T21:05:50.701056,1.00270114,.0002354,0.0161,35.2213,119.1952,249.2005,0,U,62006,999,601,0,-.145E-5,0
GSAT-N2 (GSAT-20),2024-214A,2026-07-13T01:48:41.249952,1.00270621,.0002626,0.0805,263.3771,141.4876,341.1973,0,U,62028,999,615,0,-.21E-6,0
SXM-9,2024-234A,2026-07-12T06:15:50.293728,1.00268373,.000502,0.0182,333.2441,342.7559,342.9520,0,U,62259,999,582,0,-.203E-5,0
TJS-12,2024-246A,2026-07-12T19:20:26.952000,1.00269469,.0001756,0.6169,301.7937,96.2343,329.3185,0,U,62374,999,582,0,-.231E-5,0
NUVIEW ALPHA,2024-252B,2026-07-13T02:48:10.940256,1.00271320,.000099,0.0411,20.8109,56.4751,172.6520,0,U,62455,999,408,0,-.217E-5,0
AGILA,2024-252C,2026-07-12T21:04:35.819904,1.00273164,.0001328,0.0470,138.8154,13.7347,246.5351,0,U,62456,999,541,0,-.182E-5,0
NUVIEW BRAVO,2024-252D,2026-07-13T02:48:10.940256,1.00268823,.000146,0.0683,169.6927,343.4465,96.7974,0,U,62457,999,405,0,-.217E-5,0
THURAYA-4,2025-001A,2026-07-12T21:39:38.783808,1.00272578,.0000229,0.0194,68.8467,203.8382,27.3208,0,U,62483,999,443,0,.138E-5,0
SHIJIAN-25 (SJ-25),2025-002A,2026-07-12T16:29:51.945792,1.00263277,.0052176,5.1714,60.9993,175.3572,68.8896,0,U,62485,999,561,0,-.355E-5,0
TJS-14,2025-017A,2026-07-13T03:17:10.512672,1.00274925,.0001834,0.7259,297.5438,294.5995,126.6034,0,U,62804,999,553,0,.115E-5,0
