JUPITER 3 (ECHOSTAR 24) 
1 57479U 23108A   26193.45800808  .00000000  00000+0  00000+0 0  9998
2 57479   0.0223  42.4676 0001264  73.5537 243.9918  1.00274096 10896
GALAXY 37 (G-37)        
1 57493U 23112A   26194.03683662  .00000047  00000+0  00000+0 0  9992
2 57493   0.0192  70.6042 0001737  46.4804  60.0892  1.00271041 10805
LUDI TANCE-4 01A        
1 57624U 23120A   26194.00832316 -.00000172  00000+0  00000+0 0  9996
2 57624  15.0878 193.3305 0001275  21.4011 168.6232  1.00276195 10801
TJS-10                  
1 58204U 23169A   26193.79330669 -.00000252  00000+0  00000+0 0  9992
2 58204   2.6078  80.1837 0004070 116.0570 112.3864  1.00274459  9794
ZHONGXING-6E            
1 58253U 23172A   26191.73864204 -.00000352  00000+0  00000+0 0  9990
2 58253   0.0182  60.2036 0002174  50.2192 199.5949  1.00266240  9899
YAOGAN-41               
1 58582U 23197A   26193.94375521 -.00000359  00000+0  00000+0 0  9993
2 58582   3.0830 313.5406 0014262 198.6982 241.4885  1.00266717  9588
OVZON-3                 
1 58698U 24003A   26194.07383075  .00000050  00000+0  00000+0 0  9993
2 58698   0.0185  82.3754 0000367 215.8420  78.9976  1.00268800  7704
INSAT-3DS               
1 58990U 24033A   26194.07825079 -.00000157  00000+0  00000+0 0  9995
2 58990   0.0973 265.1388 0001027 226.0543 270.0098  1.00271086 47324
MERAH PUTIH 2           
1 58995U 24035A   26194.08431748 -.00000360  00000+0  00000+0 0  9995
2 58995   0.0178  79.5594 0001043  36.1915 318.5270  1.00271167  8847
TJS-11                  
1 59020U 24037A   26193.94167520 -.00000359  00000+0  00000+0 0  9993
2 59020   4.1663 327.3969 0001792 147.8424 267.1287  1.00274791  8840
HULIANWAN GAOGUI-01 (H*)
1 59069U 24040A   26193.49836679  .00000157  00000+0  00000+0 0  9993
2 59069   0.0755 330.6497 0001828  67.4323 105.3455  1.00270541  7587
EUTELSAT 36D            
1 59346U 24059A   26193.78308711  .00000000  00000+0  00000+0 0  9991
2 59346   0.0280  56.9239 0000532 142.5486  48.9938  1.00271552  8409
PAKSAT-MM1              
1 59915U 24104A   26194.06949741  .00000152  00000+0  00000+0 0  9998
2 59915   0.0321 149.0265 0001965 307.3606 257.7254  1.00269495  7780
ASTRA 1P (SES-24)       
1 60086U 24115A   26193.63806764  .00000120  00000+0  00000+0 0  9995
2 60086   0.0663 332.0636 0000696 234.0023 333.3659  1.00266438  7453
GOES 19                 
1 60133U 24119A   26194.11835329 -.00000250  00000+0  00000+0 0  9990
2 60133   0.0168 202.8362 0000451  12.0413  43.5299  1.00271858  7229
ZHONGXING-3A            
1 60179U 24122A   26193.79694079 -.00000314  00000+0  00000+0 0  9993
2 60179   0.0296 128.8655 0001518  36.2450 154.0627  1.00272166  7560
TURKSAT 6A              
1 60233U 24127A   26194.07027741  .00000000  00000+0  00000+0 0  9998
2 60233   0.0182 232.5780 0002915 298.4200 187.2404  1.00269025  7273
HULIANWAN GAOGUI-02 (H*)
1 60327U 24135A   26193.87845238 -.00000175  00000+0  00000+0 0  9991
2 60327   0.0470 352.1009 0006339  15.8258  32.1136  1.00270340  7753
ZHONGXING-4A            
1 60606U 24151A   26194.08527081 -.00000363  00000+0  00000+0 0  9995
2 60606   1.2494 270.5149 0000394 304.5075 224.8445  1.00268308  7013
HULIANWAN GAOGUI-03 (H*)
1 61503U 24181A   26194.15095929 -.00000243  00000+0  00000+0 0  9991
2 61503   0.0509 355.1582 0001011  88.8417 184.2646  1.00269678  7084
DSN-3 (KIRAMEKI-3)      
1 61733U 24198A   26194.01898322  .00000000  00000+0  00000+0 0  9997
2 61733   0.0229  41.9194 0000794 101.8867 298.0005  1.00270689  6175
KOREASAT 6A             
1 61910U 24206A   26194.08501081 -.00000364  00000+0  00000+0 0  9998
2 61910   0.0217  83.2983 0000691   3.9871 350.2985  1.00271164  6095
OPTUS-X (ADS-01)        
1 62006U 24212A   26193.87905904 -.00000145  00000+0  00000+0 0  9997
2 62006   0.0161  35.2213 0002354 119.1952 249.2005  1.00270114  6017
GSAT-N2 (GSAT-20)       
1 62028U 24214A   26194.07547743 -.00000021  00000+0  00000+0 0  9992
2 62028   0.0805 263.3771 0002626 141.4876 341.1973  1.00270621  6158
SXM-9                   
1 62259U 24234A   26193.26099877 -.00000203  00000+0  00000+0 0  9992
2 62259   0.0182 333.2441 0005020 342.7559 342.9520  1.00268373  5829
TJS-12                  
1 62374U 24246A   26193.80586750 -.00000231  00000+0  00000+0 0  9995
2 62374   0.6169 301.7937 0001756  96.2343 329.3185  1.00269469  5825
NUVIEW ALPHA            
1 62455U 24252B   26194.11679329 -.00000217  00000+0  00000+0 0  9996
2 62455   0.0411  20.8109 0000990  56.4751 172.6520  1.00271320  4087
AGILA                   
1 62456U 24252C   26193.87819236 -.00000182  00000+0  00000+0 0  9993
2 62456   0.0470 138.8154 0001328  13.7347 246.5351  1.00273164  5415
NUVIEW BRAVO            
1 62457U 24252D   26194.11679329 -.00000217  00000+0  00000+0 0  9998
2 62457   0.0683 169.6927 0001460 343.4465  96.7974  1.00268823  4054
THURAYA-4               
1 62483U 25001A   26193.90253222  .00000138  00000+0  00000+0 0  9997
2 62483   0.0194  68.8467 0000229 203.8382  27.3208  1.00272578  4432
SHIJIAN-25 (SJ-25)      
1 62485U 25002A   26193.68740678 -.00000355  00000+0  00000+0 0  9993
2 62485   5.1714  60.9993 0052176 175.3572  68.8896  1.00263277  5617
TJS-14                  
1 62804U 25017A   26194.13692723  .00000115  00000+0  00000+0 0  9995
2 62804   0.7259 297.5438 0001834 294.5995 126.6034  1.00274925  5537
